1 26871U 01031A   12095.25762198 -.00000291  00000-0  10000-3 0  5269
2 26871 002.0940 073.7552 0003856 332.5701 179.2091 01.00260885 39251